OBJECT C                
1 57582U 23117C   25257.27174948  .00006558  00000+0  24668-3 0  9996
2 57582  97.4373 331.8796 0009783 136.8505 223.3503 15.27436366116261
